QIANFAN-57              
1 62787U 25016C   25362.89715487  .00000195  00000+0  28419-3 0  9992
2 62787  88.9788 101.5342 0002569 109.3401 250.8028 13.50981869 49385
QIANFAN-58              
1 62788U 25016D   25362.86831110  .00000199  00000+0  28946-3 0  9991
2 62788  88.9758 101.3638 0012105 297.6581  62.3341 13.50983674 49421
QIANFAN-59              
1 62789U 25016E   25362.89295962  .00000045  00000+0  51031-4 0  9996
2 62789  88.9782 101.4388 0012488 301.9813  58.0123 13.50979687 49422
QIANFAN-60              
1 62790U 25016F   25362.85189832  .00000200  00000+0  29136-3 0  9995
2 62790  88.9763 101.4115 0014006 297.8263  62.1468 13.50989085 49400
QIANFAN-61              
1 62791U 25016G   25362.88472836  .00000193  00000+0  28097-3 0  9994
2 62791  88.9830 101.5819 0012959 297.2188  62.7642 13.50985525 49420
QIANFAN-62              
1 62792U 25016H   25362.88888129  .00000189  00000+0  27450-3 0  9998
2 62792  88.9776 101.4412 0014338 297.4936  62.4758 13.50982130 49417
QIANFAN-63              
1 62793U 25016J   25362.91352187  .00000192  00000+0  27949-3 0  9990
2 62793  88.9784 101.3912 0014413 303.4312  56.5460 13.50980476 49450
QIANFAN-64              
1 62794U 25016K   25362.88061815  .00000197  00000+0  28624-3 0  9998
2 62794  88.9770 101.3666 0012322 295.7355  64.2524 13.50983881 49448
